{
  "links" : {
    "next" : "https://api.nasa.gov/neo/rest/v1/feed?start_date=2010-09-09&end_date=2010-09-09&detailed=true&api_key=t0TVs3DtDT2H8Oy2Zy8m2eVrNsAVKAexjcZXUckd",
    "prev" : "https://api.nasa.gov/neo/rest/v1/feed?start_date=2010-09-07&end_date=2010-09-07&detailed=true&api_key=t0TVs3DtDT2H8Oy2Zy8m2eVrNsAVKAexjcZXUckd",
    "self" : "https://api.nasa.gov/neo/rest/v1/feed?start_date=2010-09-08&end_date=2010-09-08&detailed=true&api_key=t0TVs3DtDT2H8Oy2Zy8m2eVrNsAVKAexjcZXUckd"
  },
  "element_count" : 7,
  "near_earth_objects" : {
    "2010-09-08" : [ {
      "links" : {
        "self" : "https://api.nasa.gov/neo/rest/v1/neo/3726021?api_key=t0TVs3DtDT2H8Oy2Zy8m2eVrNsAVKAexjcZXUckd"
      },
      "neo_reference_id" : "3726021",
      "name" : "(2015 PZ228)",
      "nasa_jpl_url" : "http://ssd.jpl.nasa.gov/sbdb.cgi?sstr=3726021",
      "absolute_magnitude_h" : 18.2,
      "estimated_diameter" : {
        "kilometers" : {
          "estimated_diameter_min" : 0.6089126221,
          "estimated_diameter_max" : 1.3615700154
        },
        "meters" : {
          "estimated_diameter_min" : 608.9126221057,
          "estimated_diameter_max" : 1361.5700153859
        },
        "miles" : {
          "estimated_diameter_min" : 0.3783606449,
          "estimated_diameter_max" : 0.846040122
        },
        "feet" : {
          "estimated_diameter_min" : 1997.7448871092,
          "estimated_diameter_max" : 4467.0933692788
        }
      },
      "is_potentially_hazardous_asteroid" : false,
      "close_approach_data" : [ {
        "close_approach_date" : "2010-09-08",
        "epoch_date_close_approach" : 1283929200000,
        "relative_velocity" : {
          "kilometers_per_second" : "36.4033532667",
          "kilometers_per_hour" : "131052.0717599414",
          "miles_per_hour" : "81430.6609221703"
        },
        "miss_distance" : {
          "astronomical" : "0.227431796",
          "lunar" : "88.4709625244",
          "kilometers" : "34023312",
          "miles" : "21141106"
        },
        "orbiting_body" : "Earth"
      } ],
      "orbital_data" : {
        "orbit_id" : "29",
        "orbit_determination_date" : "2017-04-06 08:32:26",
        "orbit_uncertainty" : "5",
        "minimum_orbit_intersection" : ".113972",
        "jupiter_tisserand_invariant" : "3.426",
        "epoch_osculation" : "2458000.5",
        "eccentricity" : ".7186368780815485",
        "semi_major_axis" : "1.81116023628329",
        "inclination" : "47.60462242800437",
        "ascending_node_longitude" : "342.2973422462251",
        "orbital_period" : "890.2945995600819",
        "perihelion_distance" : ".5095936983752267",
        "perihelion_argument" : "248.0899013720468",
        "aphelion_distance" : "3.112726774191353",
        "perihelion_time" : "2458069.055153487753",
        "mean_anomaly" : "332.2790015037876",
        "mean_motion" : ".4043605343420993",
        "equinox" : "J2000"
      }
    } ]
  }
}